[{"OBJECT_NAME":"STARLINK-32663","OBJECT_ID":"2024-229F","EPOCH":"2025-12-19T07:20:13.973856","MEAN_MOTION":15.27597883,"ECCENTRICITY":7.54e-5,"INCLINATION":43.0033,"RA_OF_ASC_NODE":5.0281,"ARG_OF_PERICENTER":258.5941,"MEAN_ANOMALY":101.4826,"EPHEMERIS_TYPE":0,"CLASSIFICATION_TYPE":"U","NORAD_CAT_ID":62197,"ELEMENT_SET_NO":999,"REV_AT_EPOCH":5826,"BSTAR":0.0008028,"MEAN_MOTION_DOT":0.00021907,"MEAN_MOTION_DDOT":0},{"OBJECT_NAME":"STARLINK-32640","OBJECT_ID":"2024-229G","EPOCH":"2025-12-19T01:38:33.273024","MEAN_MOTION":15.27596164,"ECCENTRICITY":5.888e-5,"INCLINATION":42.9995,"RA_OF_ASC_NODE":5.8342,"ARG_OF_PERICENTER":221.3724,"MEAN_ANOMALY":138.7083,"EPHEMERIS_TYPE":0,"CLASSIFICATION_TYPE":"U","NORAD_CAT_ID":62198,"ELEMENT_SET_NO":999,"REV_AT_EPOCH":5823,"BSTAR":0.0010592263,"MEAN_MOTION_DOT":0.00029015,"MEAN_MOTION_DDOT":0},{"OBJECT_NAME":"STARLINK-32653","OBJECT_ID":"2024-229H","EPOCH":"2025-12-19T06:52:00.634080","MEAN_MOTION":15.27595738,"ECCENTRICITY":5.88e-5,"INCLINATION":43.0012,"RA_OF_ASC_NODE":357.915,"ARG_OF_PERICENTER":268.7193,"MEAN_ANOMALY":91.3591,"EPHEMERIS_TYPE":0,"CLASSIFICATION_TYPE":"U","NORAD_CAT_ID":62199,"ELEMENT_SET_NO":999,"REV_AT_EPOCH":5834,"BSTAR":0.00078397,"MEAN_MOTION_DOT":0.00021384,"MEAN_MOTION_DDOT":0},{"OBJECT_NAME":"STARLINK-32647","OBJECT_ID":"2024-229J","EPOCH":"2025-12-19T17:51:32.414688","MEAN_MOTION":15.27659201,"ECCENTRICITY":0.0001737,"INCLINATION":43.0057,"RA_OF_ASC_NODE":2.2987,"ARG_OF_PERICENTER":265.1172,"MEAN_ANOMALY":94.9481,"EPHEMERIS_TYPE":0,"CLASSIFICATION_TYPE":"U","NORAD_CAT_ID":62200,"ELEMENT_SET_NO":999,"REV_AT_EPOCH":5833,"BSTAR":0.0016171,"MEAN_MOTION_DOT":0.00044616,"MEAN_MOTION_DDOT":0},{"OBJECT_NAME":"STARLINK-32667","OBJECT_ID":"2024-229K","EPOCH":"2025-12-19T01:18:12.085056","MEAN_MOTION":15.27596132,"ECCENTRICITY":0.00020264,"INCLINATION":42.9993,"RA_OF_ASC_NODE":5.7229,"ARG_OF_PERICENTER":274.8626,"MEAN_ANOMALY":85.1994,"EPHEMERIS_TYPE":0,"CLASSIFICATION_TYPE":"U","NORAD_CAT_ID":62201,"ELEMENT_SET_NO":999,"REV_AT_EPOCH":5823,"BSTAR":0.0012010929,"MEAN_MOTION_DOT":0.00032954,"MEAN_MOTION_DDOT":0},{"OBJECT_NAME":"STARLINK-32655","OBJECT_ID":"2024-229L","EPOCH":"2025-12-19T02:26:39.859008","MEAN_MOTION":15.27606471,"ECCENTRICITY":0.00024544,"INCLINATION":43.0034,"RA_OF_ASC_NODE":6.078,"ARG_OF_PERICENTER":286.5635,"MEAN_ANOMALY":73.4948,"EPHEMERIS_TYPE":0,"CLASSIFICATION_TYPE":"U","NORAD_CAT_ID":62202,"ELEMENT_SET_NO":999,"REV_AT_EPOCH":5823,"BSTAR":0.0010230724,"MEAN_MOTION_DOT":0.00028021,"MEAN_MOTION_DDOT":0},{"OBJECT_NAME":"STARLINK-32665","OBJECT_ID":"2024-229M","EPOCH":"2025-12-19T17:42:19.550592","MEAN_MOTION":15.27566221,"ECCENTRICITY":9.41e-5,"INCLINATION":43.0028,"RA_OF_ASC_NODE":2.2504,"ARG_OF_PERICENTER":277.6376,"MEAN_ANOMALY":82.4369,"EPHEMERIS_TYPE":0,"CLASSIFICATION_TYPE":"U","NORAD_CAT_ID":62203,"ELEMENT_SET_NO":999,"REV_AT_EPOCH":5833,"BSTAR":0.00051163,"MEAN_MOTION_DOT":0.00013837,"MEAN_MOTION_DDOT":0},{"OBJECT_NAME":"STARLINK-32664","OBJECT_ID":"2024-229N","EPOCH":"2025-12-19T02:15:33.886944","MEAN_MOTION":15.27600496,"ECCENTRICITY":0.0001057,"INCLINATION":43.0016,"RA_OF_ASC_NODE":6.0185,"ARG_OF_PERICENTER":272.861,"MEAN_ANOMALY":87.212,"EPHEMERIS_TYPE":0,"CLASSIFICATION_TYPE":"U","NORAD_CAT_ID":62204,"ELEMENT_SET_NO":999,"REV_AT_EPOCH":5823,"BSTAR":0.00088203022,"MEAN_MOTION_DOT":0.00024104,"MEAN_MOTION_DDOT":0},{"OBJECT_NAME":"STARLINK-32660","OBJECT_ID":"2024-229P","EPOCH":"2025-12-19T01:24:40.881600","MEAN_MOTION":15.27587957,"ECCENTRICITY":0.000102,"INCLINATION":43.0025,"RA_OF_ASC_NODE":351.884,"ARG_OF_PERICENTER":261.3052,"MEAN_ANOMALY":98.7684,"EPHEMERIS_TYPE":0,"CLASSIFICATION_TYPE":"U","NORAD_CAT_ID":62205,"ELEMENT_SET_NO":999,"REV_AT_EPOCH":5839,"BSTAR":0.00037400261,"MEAN_MOTION_DOT":0.00010046,"MEAN_MOTION_DDOT":0},{"OBJECT_NAME":"STARLINK-32448","OBJECT_ID":"2024-229Q","EPOCH":"2025-12-19T01:23:45.031776","MEAN_MOTION":15.27591994,"ECCENTRICITY":0.00010779,"INCLINATION":42.9998,"RA_OF_ASC_NODE":5.752,"ARG_OF_PERICENTER":266.3679,"MEAN_ANOMALY":93.7049,"EPHEMERIS_TYPE":0,"CLASSIFICATION_TYPE":"U","NORAD_CAT_ID":62206,"ELEMENT_SET_NO":999,"REV_AT_EPOCH":5823,"BSTAR":0.00083432691,"MEAN_MOTION_DOT":0.00022776,"MEAN_MOTION_DDOT":0},{"OBJECT_NAME":"STARLINK-32430","OBJECT_ID":"2024-229R","EPOCH":"2025-12-19T17:59:40.172064","MEAN_MOTION":15.27595124,"ECCENTRICITY":0.0002161,"INCLINATION":43.0065,"RA_OF_ASC_NODE":358.8919,"ARG_OF_PERICENTER":285.8116,"MEAN_ANOMALY":74.2497,"EPHEMERIS_TYPE":0,"CLASSIFICATION_TYPE":"U","NORAD_CAT_ID":62207,"ELEMENT_SET_NO":999,"REV_AT_EPOCH":5837,"BSTAR":0.00055755,"MEAN_MOTION_DOT":0.00015119,"MEAN_MOTION_DDOT":0},{"OBJECT_NAME":"STARLINK-32675","OBJECT_ID":"2024-229S","EPOCH":"2025-12-19T09:45:59.095008","MEAN_MOTION":15.27609751,"ECCENTRICITY":0.000134,"INCLINATION":43.0017,"RA_OF_ASC_NODE":4.0686,"ARG_OF_PERICENTER":272.3876,"MEAN_ANOMALY":87.6822,"EPHEMERIS_TYPE":0,"CLASSIFICATION_TYPE":"U","NORAD_CAT_ID":62208,"ELEMENT_SET_NO":999,"REV_AT_EPOCH":5828,"BSTAR":0.0010358,"MEAN_MOTION_DOT":0.00028377,"MEAN_MOTION_DDOT":0},{"OBJECT_NAME":"STARLINK-32671","OBJECT_ID":"2024-229T","EPOCH":"2025-12-19T01:12:51.454656","MEAN_MOTION":15.2759545,"ECCENTRICITY":0.00011482,"INCLINATION":42.9999,"RA_OF_ASC_NODE":6.548,"ARG_OF_PERICENTER":261.882,"MEAN_ANOMALY":98.1901,"EPHEMERIS_TYPE":0,"CLASSIFICATION_TYPE":"U","NORAD_CAT_ID":62209,"ELEMENT_SET_NO":999,"REV_AT_EPOCH":5822,"BSTAR":0.0010168443,"MEAN_MOTION_DOT":0.00027838,"MEAN_MOTION_DDOT":0},{"OBJECT_NAME":"STARLINK-32670","OBJECT_ID":"2024-229U","EPOCH":"2025-12-19T08:00:45.358848","MEAN_MOTION":15.27594718,"ECCENTRICITY":0.0001805,"INCLINATION":43.0008,"RA_OF_ASC_NODE":4.3844,"ARG_OF_PERICENTER":267.1226,"MEAN_ANOMALY":92.9419,"EPHEMERIS_TYPE":0,"CLASSIFICATION_TYPE":"U","NORAD_CAT_ID":62210,"ELEMENT_SET_NO":999,"REV_AT_EPOCH":5827,"BSTAR":0.0014343,"MEAN_MOTION_DOT":0.00039436,"MEAN_MOTION_DDOT":0},{"OBJECT_NAME":"STARLINK-32642","OBJECT_ID":"2024-229V","EPOCH":"2025-12-19T17:16:25.629312","MEAN_MOTION":15.27577848,"ECCENTRICITY":0.0001004,"INCLINATION":42.9989,"RA_OF_ASC_NODE":2.1204,"ARG_OF_PERICENTER":292.6224,"MEAN_ANOMALY":67.4521,"EPHEMERIS_TYPE":0,"CLASSIFICATION_TYPE":"U","NORAD_CAT_ID":62211,"ELEMENT_SET_NO":999,"REV_AT_EPOCH":5833,"BSTAR":0.00051975,"MEAN_MOTION_DOT":0.00014067,"MEAN_MOTION_DDOT":0},{"OBJECT_NAME":"STARLINK-32668","OBJECT_ID":"2024-229W","EPOCH":"2025-12-19T00:49:30.324864","MEAN_MOTION":15.27592345,"ECCENTRICITY":0.00012623,"INCLINATION":43.0012,"RA_OF_ASC_NODE":2.9786,"ARG_OF_PERICENTER":249.7825,"MEAN_ANOMALY":110.2891,"EPHEMERIS_TYPE":0,"CLASSIFICATION_TYPE":"U","NORAD_CAT_ID":62212,"ELEMENT_SET_NO":999,"REV_AT_EPOCH":5826,"BSTAR":0.00068465201,"MEAN_MOTION_DOT":0.00018633,"MEAN_MOTION_DDOT":0}]
