STARLINK-32663          
1 62197U 24229F   25353.30571729  .00021907  00000+0  80280-3 0  9995
2 62197  43.0033   5.0281 0000754 258.5941 101.4826 15.27597883 58264
STARLINK-32640          
1 62198U 24229G   25353.06844066  .00029015  00000+0  10592-2 0  9992
2 62198  42.9995   5.8342 0000588 221.3724 138.7083 15.27596164 58234
STARLINK-32653          
1 62199U 24229H   25353.28611845  .00021384  00000+0  78397-3 0  9993
2 62199  43.0012 357.9150 0000588 268.7193  91.3591 15.27595738 58346
STARLINK-32647          
1 62200U 24229J   25353.74412517  .00044616  00000+0  16171-2 0  9996
2 62200  43.0057   2.2987 0001737 265.1172  94.9481 15.27659201 58333
STARLINK-32667          
1 62201U 24229K   25353.05430654  .00032954  00000+0  12011-2 0  9994
2 62201  42.9993   5.7229 0002026 274.8626  85.1994 15.27596132 58234
STARLINK-32655          
1 62202U 24229L   25353.10185022  .00028021  00000+0  10231-2 0  9999
2 62202  43.0034   6.0780 0002454 286.5635  73.4948 15.27606471 58231
STARLINK-32665          
1 62203U 24229M   25353.73772628  .00013837  00000+0  51163-3 0  9992
2 62203  43.0028   2.2504 0000941 277.6376  82.4369 15.27566221 58335
STARLINK-32664          
1 62204U 24229N   25353.09414221  .00024104  00000+0  88203-3 0  9998
2 62204  43.0016   6.0185 0001057 272.8610  87.2120 15.27600496 58237
STARLINK-32660          
1 62205U 24229P   25353.05880650  .00010046  00000+0  37400-3 0  9991
2 62205  43.0025 351.8840 0001020 261.3052  98.7684 15.27587957 58395
STARLINK-32448          
1 62206U 24229Q   25353.05816009  .00022776  00000+0  83433-3 0  9999
2 62206  42.9998   5.7520 0001077 266.3679  93.7049 15.27591994 58234
STARLINK-32430          
1 62207U 24229R   25353.74977051  .00015119  00000+0  55755-3 0  9990
2 62207  43.0065 358.8919 0002161 285.8116  74.2497 15.27595124 58378
STARLINK-32675          
1 62208U 24229S   25353.40693397  .00028377  00000+0  10358-2 0  9991
2 62208  43.0017   4.0686 0001340 272.3876  87.6822 15.27609751 58281
STARLINK-32671          
1 62209U 24229T   25353.05059554  .00027838  00000+0  10168-2 0  9994
2 62209  42.9999   6.5480 0001148 261.8820  98.1901 15.27595450 58225
STARLINK-32670          
1 62210U 24229U   25353.33385832  .00039436  00000+0  14343-2 0  9994
2 62210  43.0008   4.3844 0001805 267.1226  92.9419 15.27594718 58276
STARLINK-32642          
1 62211U 24229V   25353.71974108  .00014067  00000+0  51975-3 0  9993
2 62211  42.9989   2.1204 0001004 292.6224  67.4521 15.27577848 58334
STARLINK-32668          
1 62212U 24229W   25353.03437876  .00018633  00000+0  68465-3 0  9990
2 62212  43.0012   2.9786 0001262 249.7825 110.2891 15.27592345 58261
